[{"OBJECT_NAME":"STARLINK-6234","OBJECT_ID":"2023-099D","EPOCH":"2026-03-09T22:58:47.628480","MEAN_MOTION":15.02536692,"ECCENTRICITY":0.00016138,"INCLINATION":43.0039,"RA_OF_ASC_NODE":247.7982,"ARG_OF_PERICENTER":275.907,"MEAN_ANOMALY":84.1588,"EPHEMERIS_TYPE":0,"CLASSIFICATION_TYPE":"U","NORAD_CAT_ID":57331,"ELEMENT_SET_NO":999,"REV_AT_EPOCH":14615,"BSTAR":2.2960698e-5,"MEAN_MOTION_DOT":1.06e-6,"MEAN_MOTION_DDOT":0},{"OBJECT_NAME":"COSMOS 397 DEB","OBJECT_ID":"1971-015AM","EPOCH":"2026-03-09T10:35:37.503456","MEAN_MOTION":13.78905525,"ECCENTRICITY":0.05800552,"INCLINATION":65.645,"RA_OF_ASC_NODE":106.5344,"ARG_OF_PERICENTER":135.5672,"MEAN_ANOMALY":229.3475,"EPHEMERIS_TYPE":0,"CLASSIFICATION_TYPE":"U","NORAD_CAT_ID":5187,"ELEMENT_SET_NO":999,"REV_AT_EPOCH":65826,"BSTAR":0.00070809772,"MEAN_MOTION_DOT":2.512e-5,"MEAN_MOTION_DDOT":0}]
